GLOBALSTAR M067         
1 32263U 07048A   25176.62370834 -.00000076  00000+0  15550-3 0  9991
2 32263  51.9749  11.2460 0001402  40.0551 348.2218 12.40674075810530
GLOBALSTAR M070         
1 32264U 07048B   25176.55240836 -.00000121  00000+0 -95806-4 0  9997
2 32264  51.9747 103.0184 0000583  63.9883 106.7304 12.62319323814727
GLOBALSTAR M066         
1 32265U 07048C   25176.50484838 -.00000094  00000+0  37031-5 0  9990
2 32265  51.9716   1.7380 0002099 336.5823  49.5374 12.29913436816320
GLOBALSTAR M068         
1 32266U 07048D   25176.53014689 -.00000127  00000+0 -12809-3 0  9999
2 32266  51.9893 276.8260 0001562 144.9351 227.9289 12.62824660818618
GLOBALSTAR M079         
1 37188U 10054A   25176.59435782 -.00000117  00000+0 -76467-4 0  9995
2 37188  52.0035 114.1918 0000566   6.6403 163.9433 12.62265174677516
GLOBALSTAR M074         
1 37189U 10054B   25176.54213598 -.00000123  00000+0 -10806-3 0  9991
2 37189  52.0010 113.6737 0000633  34.7956 136.8842 12.62256946678110
GLOBALSTAR M076         
1 37190U 10054C   25176.56835487 -.00000126  00000+0 -12660-3 0  9995
2 37190  52.0020 113.7641 0000714  25.3340 146.4014 12.62263245677837
GLOBALSTAR M077         
1 37191U 10054D   25176.47612891 -.00000098  00000+0  33488-4 0  9997
2 37191  52.0078  70.9043 0000742  57.4940 115.0545 12.62268520678196
